OBJECT_NAME,OBJECT_ID,EPOCH,MEAN_MOTION,ECCENTRICITY,INCLINATION,RA_OF_ASC_NODE,ARG_OF_PERICENTER,MEAN_ANOMALY,EPHEMERIS_TYPE,CLASSIFICATION_TYPE,NORAD_CAT_ID,ELEMENT_SET_NO,REV_AT_EPOCH,BSTAR,MEAN_MOTION_DOT,MEAN_MOTION_DDOT
SCD 1,1993-009B,2026-07-21T19:47:19.936320,14.46130633,.00419737,24.9709,353.7096,144.3545,4.5535,0,U,22490,999,76613,.52331561E-4,.378E-5,0
TECHSAT 1B (GO-32),1998-043D,2026-07-21T09:54:55.389312,14.24434140,.00023162,99.0091,196.0385,105.0328,255.1107,0,U,25397,999,45620,.34134747E-4,.32E-6,0
SCD 2,1998-060A,2026-07-22T07:34:27.187680,14.45536312,.00169313,24.9935,215.5234,133.7042,336.2769,0,U,25504,999,46541,.36320273E-4,.312E-5,0
DLR-TUBSAT,1999-029B,2026-07-21T22:41:00.829536,14.52434325,.00131155,98.6716,199.5964,242.4327,117.5536,0,U,25757,999,43829,.27495196E-4,.64E-6,0
TERRA,1999-068A,2026-07-22T06:54:15.258240,14.61127534,.00036359,97.9436,251.4387,108.9673,322.8872,0,U,25994,999,41473,.63829514E-4,.27E-5,0
MAROC-TUBSAT,2001-056D,2026-07-22T03:12:25.519680,13.70263701,.00204918,99.8104,20.6551,54.9592,58.5845,0,U,27004,999,23097,.27287448E-4,-.23E-6,0
AQUA,2002-022A,2026-07-22T05:45:57.491136,14.62135699,.00013385,98.4302,173.2289,102.3212,22.0983,0,U,27424,999,28839,.12389185E-3,.574E-5,0
SHIYAN-1 (SY-1),2004-012A,2026-07-22T03:25:39.929664,15.34572117,.00043915,97.8671,283.5022,242.9592,117.1202,0,U,28220,999,21645,.41387192E-3,.13789E-3,0
AURA,2004-026A,2026-07-22T05:57:29.797920,14.61374997,.00014202,98.3435,159.9968,93.8247,266.3116,0,U,28376,999,17133,.12504629E-3,.57E-5,0
IRS-P5 (CARTOSAT-1),2005-017A,2026-07-22T07:25:18.714432,14.91129915,.00009611,97.5307,224.7811,57.8743,302.2569,0,U,28649,999,14905,.96024179E-4,.9E-5,0
SINAH 1,2005-043D,2026-07-22T07:36:27.044352,14.64178843,.00148886,98.2902,337.8540,161.6216,198.5527,0,U,28893,999,10566,.57335249E-4,.253E-5,0
RESURS-DK 1,2006-021A,2026-07-22T04:49:05.954304,15.13337200,.00075126,69.9299,248.9069,263.5689,96.4622,0,U,29228,999,10787,.88067496E-4,.1465E-4,0
ARIRANG-2 (KOMPSAT-2),2006-031A,2026-07-22T06:41:29.412960,14.64677006,.00136203,97.8326,26.0294,327.7126,136.8458,0,U,29268,999,6661,-.5441095E-5,-.74E-6,0
LAPAN-TUBSAT,2007-001A,2026-07-22T06:28:24.403296,14.85978635,.00135864,98.1364,203.2878,73.3994,286.8711,0,U,29709,999,5636,-.14886279E-4,-.188E-5,0
HAIYANG-1B,2007-010A,2026-07-21T16:26:48.414048,14.31034509,.00148267,98.3520,183.1967,98.2130,262.0736,0,U,31113,999,557,.42645743E-4,.71E-6,0
COSMO-SKYMED 1,2007-023A,2026-07-22T06:56:52.267776,14.97249027,.00018275,97.8856,35.4433,94.1149,266.0282,0,U,31598,999,3504,.22695988E-3,.2568E-4,0
TERRASAR-X,2007-026A,2026-07-21T10:38:16.050048,15.19148901,.00018087,97.4457,209.6623,80.3305,279.8134,0,U,31698,999,5842,.12713736E-4,.2E-5,0
WORLDVIEW-1 (WV-1),2007-041A,2026-07-22T06:40:09.848064,15.24613310,.00022185,97.3902,322.5324,178.7647,181.3597,0,U,32060,999,4822,.25831684E-3,.6301E-4,0
YAOGAN-3,2007-055A,2026-07-22T07:07:30.432864,14.90897445,.00014481,97.8145,232.8280,86.3340,273.8044,0,U,32289,999,1110,.16887525E-3,.1609E-4,0
COSMO-SKYMED 2,2007-059A,2026-07-22T06:23:48.528960,14.82154648,.000148,97.8898,26.3576,94.0828,266.0554,0,U,32376,999,720,.46372757E-4,.317E-5,0
RADARSAT-2,2007-061A,2026-07-22T00:33:27.985248,14.29983750,.00013383,98.5793,209.4587,87.1632,272.9704,0,U,32382,999,97093,-.28201848E-4,-.116E-5,0
CARTOSAT-2A,2008-021A,2026-07-22T06:55:05.441088,14.79280609,.00118521,97.7613,250.7956,5.1963,354.9369,0,U,32783,999,98399,.36569585E-4,.222E-5,0
HUANJING 1A (HJ-1A),2008-041A,2026-07-22T07:04:57.360576,14.84058396,.00198691,97.6710,187.7811,27.6589,332.5679,0,U,33320,999,96361,.82373936E-4,.637E-5,0
HUANJING 1B (HJ-1B),2008-041B,2026-07-22T06:43:40.487808,14.83375564,.003796,97.6548,190.8318,69.1254,291.4019,0,U,33321,999,96361,.12011909E-3,.945E-5,0
GEOEYE 1,2008-042A,2026-07-22T06:23:18.001248,14.64653547,.00034699,98.1321,276.7790,320.3073,39.7875,0,U,33331,999,95528,.68236778E-4,.315E-5,0
THEOS,2008-049A,2026-07-22T06:24:42.899616,14.20137750,.00011306,98.5550,259.4085,94.5870,265.5436,0,U,33396,999,92294,.45488585E-4,.55E-6,0
COSMO-SKYMED 3,2008-054A,2026-07-22T06:24:04.931136,15.07145656,.0016684,97.8253,62.4171,142.2795,217.9605,0,U,33412,999,96222,.1731677E-3,.2544E-4,0
YAOGAN-4,2008-061A,2026-07-21T18:35:41.689248,14.83260059,.00133125,97.9302,136.0312,323.3019,36.7282,0,U,33446,999,95079,.93666293E-4,.713E-5,0
GOSAT (IBUKI),2009-002A,2026-07-22T04:24:56.917440,14.67539775,.00010916,98.0915,313.8315,92.4328,267.7001,0,U,33492,999,93659,.9257051E-4,.477E-5,0
DEIMOS-1,2009-041A,2026-07-22T06:03:38.308608,14.75266415,.00028136,97.7449,358.9679,83.3353,276.8177,0,U,35681,999,91205,.916892E-6,-.41E-6,0
