SCD 1                   
1 22490U 93009B   26202.82453630  .00000378  00000+0  52332-4 0  9997
2 22490  24.9709 353.7096 0041973 144.3545   4.5535 14.46130633766139
TECHSAT 1B (GO-32)      
1 25397U 98043D   26202.41314108  .00000032  00000+0  34135-4 0  9998
2 25397  99.0091 196.0385 0002316 105.0328 255.1107 14.24434140456204
SCD 2                   
1 25504U 98060A   26203.31559245  .00000312  00000+0  36320-4 0  9999
2 25504  24.9935 215.5234 0016931 133.7042 336.2769 14.45536312465412
DLR-TUBSAT              
1 25757U 99029B   26202.94514849  .00000064  00000+0  27495-4 0  9991
2 25757  98.6716 199.5964 0013115 242.4327 117.5536 14.52434325438290
TERRA                   
1 25994U 99068A   26203.28767660  .00000270  00000+0  63830-4 0  9998
2 25994  97.9436 251.4387 0003635 108.9673 322.8872 14.61127534414735
MAROC-TUBSAT            
1 27004U 01056D   26203.13362870 -.00000023  00000+0  27287-4 0  9993
2 27004  99.8104  20.6551 0020491  54.9592  58.5845 13.70263701230971
AQUA                    
1 27424U 02022A   26203.24024874  .00000574  00000+0  12389-3 0  9990
2 27424  98.4302 173.2289 0001338 102.3212  22.0983 14.62135699288395
SHIYAN-1 (SY-1)         
1 28220U 04012A   26203.14282326  .00013789  00000+0  41387-3 0  9995
2 28220  97.8671 283.5022 0004391 242.9592 117.1202 15.34572117216454
AURA                    
1 28376U 04026A   26203.24826155  .00000570  00000+0  12505-3 0  9991
2 28376  98.3435 159.9968 0001420  93.8247 266.3116 14.61374997171338
IRS-P5 (CARTOSAT-1)     
1 28649U 05017A   26203.30924438  .00000900  00000+0  96024-4 0  9991
2 28649  97.5307 224.7811 0000961  57.8743 302.2569 14.91129915149055
SINAH 1                 
1 28893U 05043D   26203.31697968  .00000253  00000+0  57335-4 0  9990
2 28893  98.2902 337.8540 0014888 161.6216 198.5527 14.64178843105665
RESURS-DK 1             
1 29228U 06021A   26203.20076336  .00001465  00000+0  88067-4 0  9990
2 29228  69.9299 248.9069 0007512 263.5689  96.4622 15.13337200107878
ARIRANG-2 (KOMPSAT-2)   
1 29268U 06031A   26203.27881265 -.00000074  00000+0 -54411-5 0  9991
2 29268  97.8326  26.0294 0013620 327.7126 136.8458 14.64677006 66612
LAPAN-TUBSAT            
1 29709U 07001A   26203.26972689 -.00000188  00000+0 -14886-4 0  9996
2 29709  98.1364 203.2878 0013586  73.3994 286.8711 14.85978635 56367
HAIYANG-1B              
1 31113U 07010A   26202.68528257  .00000071  00000+0  42646-4 0  9995
2 31113  98.3520 183.1967 0014826  98.2130 262.0736 14.31034509  5570
COSMO-SKYMED 1          
1 31598U 07023A   26203.28949384  .00002568  00000+0  22696-3 0  9996
2 31598  97.8856  35.4433 0001827  94.1149 266.0282 14.97249027 35042
TERRASAR-X              
1 31698U 07026A   26202.44324132  .00000200  00000+0  12714-4 0  9997
2 31698  97.4457 209.6623 0001808  80.3305 279.8134 15.19148901 58421
WORLDVIEW-1 (WV-1)      
1 32060U 07041A   26203.27789176  .00006301  00000+0  25832-3 0  9995
2 32060  97.3902 322.5324 0002218 178.7647 181.3597 15.24613310 48223
YAOGAN-3                
1 32289U 07055A   26203.29688001  .00001609  00000+0  16888-3 0  9997
2 32289  97.8145 232.8280 0001448  86.3340 273.8044 14.90897445 11108
COSMO-SKYMED 2          
1 32376U 07059A   26203.26653390  .00000317  00000+0  46373-4 0  9996
2 32376  97.8898  26.3576 0001480  94.0828 266.0554 14.82154648  7205
RADARSAT-2              
1 32382U 07061A   26203.02324057 -.00000116  00000+0 -28202-4 0  9995
2 32382  98.5793 209.4587 0001338  87.1632 272.9704 14.29983750970935
CARTOSAT-2A             
1 32783U 08021A   26203.28825742  .00000222  00000+0  36570-4 0  9995
2 32783  97.7613 250.7956 0011852   5.1963 354.9369 14.79280609983996
HUANJING 1A (HJ-1A)     
1 33320U 08041A   26203.29510834  .00000637  00000+0  82374-4 0  9992
2 33320  97.6710 187.7811 0019869  27.6589 332.5679 14.84058396963614
HUANJING 1B (HJ-1B)     
1 33321U 08041B   26203.28032972  .00000945  00000+0  12012-3 0  9997
2 33321  97.6548 190.8318 0037960  69.1254 291.4019 14.83375564963612
GEOEYE 1                
1 33331U 08042A   26203.26618057  .00000315  00000+0  68237-4 0  9993
2 33331  98.1321 276.7790 0003469 320.3073  39.7875 14.64653547955280
THEOS                   
1 33396U 08049A   26203.26716319  .00000055  00000+0  45489-4 0  9996
2 33396  98.5550 259.4085 0001130  94.5870 265.5436 14.20137750922946
COSMO-SKYMED 3          
1 33412U 08054A   26203.26672374  .00002544  00000+0  17317-3 0  9996
2 33412  97.8253  62.4171 0016684 142.2795 217.9605 15.07145656962226
YAOGAN-4                
1 33446U 08061A   26202.77478807  .00000713  00000+0  93666-4 0  9999
2 33446  97.9302 136.0312 0013312 323.3019  36.7282 14.83260059950795
GOSAT (IBUKI)           
1 33492U 09002A   26203.18399210  .00000477  00000+0  92571-4 0  9993
2 33492  98.0915 313.8315 0001091  92.4328 267.7001 14.67539775936597
DEIMOS-1                
1 35681U 09041A   26203.25252672 -.00000041  00000+0  91689-6 0  9995
2 35681  97.7449 358.9679 0002813  83.3353 276.8177 14.75266415912057
